{
"type": "FeatureCollection",
"name": "seoul-gu",
"crs": { "type": "name", "properties": { "name": "urn:ogc:def:crs:OGC:1.3:CRS84" } },
"xy_coordinate_resolution": 1e-15,
"features": [
{ "type": "Feature", "properties": { "nm": "종로구" }, "geometry": { "type": "MultiPolygon", "coordinates": [ [ [ [ 127.009797550968912, 37.580469950260145 ], [ 127.011845003597571, 37.581544153463554 ], [ 127.012853371201359, 37.581359538978468 ], [ 127.013277525511924, 37.581475313268591 ], [ 127.015369590769993, 37.581945995067969 ], [ 127.017663770422715, 37.579438258880288 ], [ 127.022335171145457, 37.578267741110309 ], [ 127.023255890538394, 37.574842233175417 ], [ 127.023046947529977, 37.571177778997281 ], [ 127.016205700130428, 37.570003697923205 ], [ 127.009639933631348, 37.56973369031261 ], [ 127.004412829826464, 37.569621172494365 ], [ 126.999132768948272, 37.56908336466671 ], [ 126.993749089929452, 37.568448816431484 ], [ 126.988202416662972, 37.568167812636325 ], [ 126.982959190564159, 37.568836701763622 ], [ 126.976321141415241, 37.569269177478539 ], [ 126.971184542103927, 37.568658382464228 ], [ 126.968438229680956, 37.567579641021091 ], [ 126.966988379016684, 37.565886260052295 ], [ 126.963534837411444, 37.569069918071968 ], [ 126.961697413814974, 37.570836900893575 ], [ 126.95847969507993, 37.573896832320848 ], [ 126.956052348155609, 37.576064073123575 ], [ 126.954714192587318, 37.578673129399128 ], [ 126.957586637141276, 37.580446194814904 ], [ 126.957810936976983, 37.583219194406169 ], [ 126.957414637687194, 37.588367772931782 ], [ 126.957879068457856, 37.592617032162877 ], [ 126.958002387232099, 37.597160367704241 ], [ 126.956181015934632, 37.599005752258257 ], [ 126.955087142962782, 37.599226045970454 ], [ 126.953804511088308, 37.59888017277067 ], [ 126.952861331444751, 37.601135966165607 ], [ 126.953039452535151, 37.605674949268909 ], [ 126.949819174587759, 37.60987051531437 ], [ 126.950564736674565, 37.614894557564519 ], [ 126.949822519434065, 37.620391023546418 ], [ 126.949229969692624, 37.623702516935495 ], [ 126.950412691542226, 37.626419552942039 ], [ 126.953714984294749, 37.627433170905583 ], [ 126.957833713817635, 37.629085009717954 ], [ 126.964049318373398, 37.630076591183695 ], [ 126.965448258409154, 37.630720561890492 ], [ 126.967012868556992, 37.630715978101918 ], [ 126.968235548900395, 37.630730073762052 ], [ 126.970602190153457, 37.631466986404973 ], [ 126.975683362340689, 37.632143754087764 ], [ 126.977033289812439, 37.62923928744393 ], [ 126.97964333057925, 37.628422800926835 ], [ 126.981488277403884, 37.624546990321292 ], [ 126.983414990836721, 37.619798490150721 ], [ 126.984471175350421, 37.61643597471268 ], [ 126.985904523072648, 37.614121141346637 ], [ 126.986117721720177, 37.609765480826425 ], [ 126.986543536592535, 37.606074522330445 ], [ 126.985846593660611, 37.603548094038828 ], [ 126.981959915717525, 37.602125192882447 ], [ 126.978035949126124, 37.600351597536786 ], [ 126.977772203295061, 37.597668475567708 ], [ 126.98109639955473, 37.595635356342093 ], [ 126.984272395143165, 37.594490921117341 ], [ 126.987748290358851, 37.592534056932593 ], [ 126.993304149345775, 37.591855130214554 ], [ 126.999349768642375, 37.59192462100183 ], [ 127.001706077061044, 37.589996338845033 ], [ 127.003928719466202, 37.587956214955589 ], [ 127.007077108204356, 37.582894033788847 ], [ 127.007837103311275, 37.581454145152065 ], [ 127.009797550968912, 37.580469950260145 ] ] ] ] } },
{ "type": "Feature", "properties": { "nm": "중구" }, "geometry": { "type": "MultiPolygon", "coordinates": [ [ [ [ 127.023046947529977, 37.571177778997281 ], [ 127.023546364273543, 37.566576054295233 ], [ 127.026644988284062, 37.564295553490098 ], [ 127.025808955884585, 37.562606651696157 ], [ 127.023347933238597, 37.560297679623602 ], [ 127.021101308651367, 37.557634329565118 ], [ 127.017603839476777, 37.555850206378167 ], [ 127.015416090481779, 37.552124872142251 ], [ 127.013184108078462, 37.550093794935961 ], [ 127.01127291479672, 37.548551703003248 ], [ 127.008779893327883, 37.543639297254003 ], [ 127.007127422897568, 37.544171720406737 ], [ 127.005485895535827, 37.547803910230598 ], [ 127.004094134321861, 37.550044875891075 ], [ 127.002796411601338, 37.549637390577736 ], [ 127.002198633773489, 37.549711168687708 ], [ 127.000975291281435, 37.549946239397002 ], [ 126.999220569976757, 37.549742399168032 ], [ 126.998909096073206, 37.549795042111981 ], [ 126.997471310324698, 37.548893328188385 ], [ 126.994503042961441, 37.547894327940377 ], [ 126.991490610970772, 37.55044756186922 ], [ 126.988024768613059, 37.551927800570702 ], [ 126.981845156291058, 37.553512986660181 ], [ 126.97881150949938, 37.553747488482422 ], [ 126.977244352402437, 37.554711874253975 ], [ 126.976111043504773, 37.553439030313683 ], [ 126.973346267030351, 37.554118858112098 ], [ 126.971912038757438, 37.554654284578298 ], [ 126.966277464012421, 37.5543242415213 ], [ 126.964536578782372, 37.553245658432452 ], [ 126.962368853680388, 37.551943615528522 ], [ 126.962221262594042, 37.555514838931963 ], [ 126.963038727577938, 37.557154643762225 ], [ 126.961786751211747, 37.558437513171903 ], [ 126.961806407358353, 37.558935010417031 ], [ 126.965465777336973, 37.560368051930006 ], [ 126.969023055476882, 37.562202139333522 ], [ 126.968522758330238, 37.56355674914542 ], [ 126.966988379016684, 37.565886260052295 ], [ 126.968438229680956, 37.567579641021091 ], [ 126.971184542103927, 37.568658382464228 ], [ 126.976321141415241, 37.569269177478539 ], [ 126.982959190564159, 37.568836701763622 ], [ 126.988202416662972, 37.568167812636325 ], [ 126.993749089929452, 37.568448816431484 ], [ 126.999132768948272, 37.56908336466671 ], [ 127.004412829826464, 37.569621172494365 ], [ 127.009639933631348, 37.56973369031261 ], [ 127.016205700130428, 37.570003697923205 ], [ 127.023046947529977, 37.571177778997281 ] ] ] ] } },
{ "type": "Feature", "properties": { "nm": "용산구" }, "geometry": { "type": "MultiPolygon", "coordinates": [ [ [ [ 126.971912038757438, 37.554654284578298 ], [ 126.973346267030351, 37.554118858112098 ], [ 126.976110765752097, 37.553439030311971 ], [ 126.977244352402437, 37.554711874253975 ], [ 126.97881123174669, 37.553747488480724 ], [ 126.981845156291058, 37.553512986660181 ], [ 126.988024768613059, 37.551927800570702 ], [ 126.991490610970772, 37.55044756186922 ], [ 126.994503042961441, 37.547894327940377 ], [ 126.997471032572022, 37.548893328186672 ], [ 126.998908818320501, 37.549795042110262 ], [ 126.999220292224081, 37.549742399166334 ], [ 127.000975012933182, 37.549946239395254 ], [ 127.002198356020813, 37.549711168685995 ], [ 127.002796136677773, 37.549637390576002 ], [ 127.004094134321861, 37.550044875891075 ], [ 127.005485617783151, 37.547803910228886 ], [ 127.007127422897568, 37.544171720406737 ], [ 127.008779893327883, 37.543639297254003 ], [ 127.011381049820088, 37.539407638884022 ], [ 127.015335350045802, 37.538365976699389 ], [ 127.01694938879308, 37.533561586071428 ], [ 127.014218027719295, 37.531378118953434 ], [ 127.011809146522523, 37.528978250744899 ], [ 127.008721984342429, 37.525666667263991 ], [ 127.006933162370188, 37.523958973088128 ], [ 127.003722352085163, 37.521534961661501 ], [ 127.00045075601443, 37.519291108986693 ], [ 126.99753189651048, 37.51743244230731 ], [ 126.994669281976712, 37.515618070531275 ], [ 126.989542544186577, 37.511619629721075 ], [ 126.986420834565138, 37.507678592578728 ], [ 126.981834580636203, 37.506034903329699 ], [ 126.97737920393331, 37.506721254481242 ], [ 126.97107648797838, 37.508634474350181 ], [ 126.969405006412615, 37.509200283562372 ], [ 126.965614878941892, 37.510626292684229 ], [ 126.961834028901791, 37.513101174366795 ], [ 126.958727881204936, 37.514404499605135 ], [ 126.954989747073668, 37.515876287652752 ], [ 126.949321228993625, 37.517381797052572 ], [ 126.949885076988778, 37.519820774188467 ], [ 126.949880806039403, 37.525079206818212 ], [ 126.948423538846185, 37.528887995527512 ], [ 126.944663537561453, 37.534362412510326 ], [ 126.947834705063457, 37.535600754259505 ], [ 126.950720366258309, 37.536148778117131 ], [ 126.953809707996427, 37.538179567248896 ], [ 126.956820050770702, 37.541130384986054 ], [ 126.957777671150836, 37.543502433376062 ], [ 126.959664630589941, 37.546315848323786 ], [ 126.963654909449744, 37.549162014637695 ], [ 126.963411896068422, 37.550264578892367 ], [ 126.962368853680388, 37.551943615528522 ], [ 126.964536578782372, 37.553245658432452 ], [ 126.966277464012421, 37.5543242415213 ], [ 126.971912038757438, 37.554654284578298 ] ] ] ] } },
{ "type": "Feature", "properties": { "nm": "성동구" }, "geometry": { "type": "MultiPolygon", "coordinates": [ [ [ [ 127.044474209320612, 37.571882071598516 ], [ 127.048682453872956, 37.569796908416734 ], [ 127.052716562375011, 37.566827886411616 ], [ 127.055419663662803, 37.564817915426147 ], [ 127.058761159457688, 37.562314256431748 ], [ 127.060318709722807, 37.562091577444477 ], [ 127.069365316274016, 37.560797320949874 ], [ 127.071847687528944, 37.560693379286406 ], [ 127.068903862644817, 37.550859285868945 ], [ 127.06746531494737, 37.548329439548418 ], [ 127.063985655686778, 37.542164865612527 ], [ 127.062012628524243, 37.538668891012584 ], [ 127.056225289977888, 37.528703553464368 ], [ 127.051834365830231, 37.530766805455357 ], [ 127.0488897173053, 37.532566623114519 ], [ 127.045907758189486, 37.534160591227945 ], [ 127.039660521093552, 37.535751534825131 ], [ 127.033633735430215, 37.535839624231102 ], [ 127.028948489689526, 37.535833941305228 ], [ 127.021636327602693, 37.535634339791009 ], [ 127.01694938879308, 37.533561586071428 ], [ 127.015335350045802, 37.538365976699389 ], [ 127.011381049820088, 37.539407638884022 ], [ 127.008779893327883, 37.543639297254003 ], [ 127.01127291479672, 37.548551703003248 ], [ 127.013184108078462, 37.550093794935961 ], [ 127.015416090481779, 37.552124872142251 ], [ 127.017603839476777, 37.555850206378167 ], [ 127.021101308651367, 37.557634329565118 ], [ 127.023347933238597, 37.560297679623602 ], [ 127.025808955884585, 37.562606651696157 ], [ 127.026644988284062, 37.564295553490098 ], [ 127.023546364273543, 37.566576054295233 ], [ 127.023046947529977, 37.571177778997281 ], [ 127.027190322221131, 37.570651375573703 ], [ 127.034027919797211, 37.571167195438683 ], [ 127.036882345145401, 37.572228647400088 ], [ 127.038220204009704, 37.572830483788422 ], [ 127.042227095361156, 37.572835598746735 ], [ 127.044474209320612, 37.571882071598516 ] ] ] ] } },
{ "type": "Feature", "properties": { "nm": "광진구" }, "geometry": { "type": "MultiPolygon", "coordinates": [ [ [ [ 127.10308787484675, 37.572036670267636 ], [ 127.104230474941431, 37.57138765445157 ], [ 127.103368172900545, 37.569370753865869 ], [ 127.10245042092761, 37.565799476564592 ], [ 127.101543864982432, 37.56119906881063 ], [ 127.10325956518794, 37.558392218908281 ], [ 127.105636079544908, 37.556606544723081 ], [ 127.107941771741906, 37.558133834697401 ], [ 127.113434197804168, 37.558658482281743 ], [ 127.115237038225786, 37.556776369069794 ], [ 127.112672237336184, 37.552059672903653 ], [ 127.111372028377104, 37.547117981444401 ], [ 127.110080215505008, 37.544784793230619 ], [ 127.108813760611639, 37.542380311500601 ], [ 127.106666369608135, 37.540129447330379 ], [ 127.103259529658914, 37.53743284931771 ], [ 127.100685885527099, 37.535380881125121 ], [ 127.093460426619018, 37.529647478151183 ], [ 127.091549271207015, 37.528129195641732 ], [ 127.089738046892919, 37.526855537060086 ], [ 127.084861835083231, 37.524563170329941 ], [ 127.080830718811796, 37.523289921253649 ], [ 127.078008314644109, 37.522679502632826 ], [ 127.074838196431259, 37.52280314121694 ], [ 127.07171559877257, 37.523431900375336 ], [ 127.067800267143809, 37.524333812076655 ], [ 127.060713820071115, 37.526868975827405 ], [ 127.056225289977888, 37.528703553464368 ], [ 127.063985655686778, 37.542164865612527 ], [ 127.06746531494737, 37.548329439548418 ], [ 127.068903862644817, 37.550859285868945 ], [ 127.071847687528944, 37.560693379286406 ], [ 127.07425650822826, 37.564780455410535 ], [ 127.07645941981454, 37.56742372020134 ], [ 127.07924767934621, 37.571727684527538 ], [ 127.083401949541241, 37.571328833557082 ], [ 127.090436291221536, 37.570074588551755 ], [ 127.095700145100366, 37.571113607645735 ], [ 127.098560934838218, 37.572624690550313 ], [ 127.100634542123629, 37.573887356829943 ], [ 127.10308787484675, 37.572036670267636 ] ] ] ] } },
{ "type": "Feature", "properties": { "nm": "동대문구" }, "geometry": { "type": "MultiPolygon", "coordinates": [ [ [ [ 127.070956176370714, 37.606625332530832 ], [ 127.072570545478627, 37.601711644756762 ], [ 127.071222427796144, 37.598905566279512 ], [ 127.069515967460944, 37.596227764424846 ], [ 127.070545499025926, 37.59152210783585 ], [ 127.07119263744103, 37.588592928607582 ], [ 127.073061088695894, 37.584081112851663 ], [ 127.075249341906328, 37.580992152454009 ], [ 127.076360618600518, 37.579528413933083 ], [ 127.077136559531809, 37.574161838900736 ], [ 127.07924767934621, 37.571727684527538 ], [ 127.07645941981454, 37.56742372020134 ], [ 127.07425650822826, 37.564780455410535 ], [ 127.071847687528944, 37.560693379286406 ], [ 127.069365316274016, 37.560797320949874 ], [ 127.060318709722807, 37.562091577444477 ], [ 127.058761159457688, 37.562314256431748 ], [ 127.055419663662803, 37.564817915426147 ], [ 127.052716562375011, 37.566827886411616 ], [ 127.048682453872956, 37.569796908416734 ], [ 127.044474209320612, 37.571882071598516 ], [ 127.042227095361156, 37.572835598746735 ], [ 127.038220204009704, 37.572830483788422 ], [ 127.036882345145401, 37.572228647400088 ], [ 127.034027919797211, 37.571167195438683 ], [ 127.027190322221131, 37.570651375573703 ], [ 127.023046947529977, 37.571177778997281 ], [ 127.023255890538394, 37.574842233175417 ], [ 127.022335171145457, 37.578267741110309 ], [ 127.025914614455132, 37.580201048817514 ], [ 127.029352334840624, 37.582592992383006 ], [ 127.031780381079741, 37.585297319964624 ], [ 127.034176129462509, 37.587707131672325 ], [ 127.036277990349532, 37.590222725626639 ], [ 127.037905342269255, 37.591559544583454 ], [ 127.041183231994353, 37.595512855517541 ], [ 127.043844864715922, 37.596401073132135 ], [ 127.048555566517777, 37.597797048180155 ], [ 127.051280169490951, 37.600489769476816 ], [ 127.055432611296752, 37.600969034106107 ], [ 127.059925110909504, 37.602152689350106 ], [ 127.062630838190046, 37.60503706718066 ], [ 127.06707655635222, 37.606255125712998 ], [ 127.070956176370714, 37.606625332530832 ] ] ] ] } },
{ "type": "Feature", "properties": { "nm": "중랑구" }, "geometry": { "type": "MultiPolygon", "coordinates": [ [ [ [ 127.113330882648185, 37.620053305142356 ], [ 127.116252248781805, 37.6187749008092 ], [ 127.116957118638283, 37.61567972672772 ], [ 127.117010710490163, 37.61062923631718 ], [ 127.118059035440552, 37.606696087105036 ], [ 127.116349980666726, 37.602617123024984 ], [ 127.114438481833446, 37.600337728459493 ], [ 127.114543226064697, 37.598928250437154 ], [ 127.116132887166117, 37.596667981747146 ], [ 127.115922177178007, 37.593821161765909 ], [ 127.113466575448598, 37.592713193661737 ], [ 127.110423006908391, 37.588132485380854 ], [ 127.109888280034752, 37.585739254705793 ], [ 127.107474286989003, 37.582703422914598 ], [ 127.104913410726951, 37.581378628010555 ], [ 127.102736078813848, 37.578956408443311 ], [ 127.100634542123629, 37.573887356829943 ], [ 127.098560934838218, 37.572624690550313 ], [ 127.095700145100366, 37.571113607645735 ], [ 127.090436291221536, 37.570074588551755 ], [ 127.083401949541241, 37.571328833557082 ], [ 127.07924767934621, 37.571727684527538 ], [ 127.077136559531809, 37.574161838900736 ], [ 127.076360618600518, 37.579528413933083 ], [ 127.075249341906328, 37.580992152454009 ], [ 127.073061088695894, 37.584081112851663 ], [ 127.07119263744103, 37.588592928607582 ], [ 127.070545499025926, 37.59152210783585 ], [ 127.069515967460944, 37.596227764424846 ], [ 127.071222427796144, 37.598905566279512 ], [ 127.072570545478627, 37.601711644756762 ], [ 127.070956176370714, 37.606625332530832 ], [ 127.071405338536607, 37.610646012187104 ], [ 127.07220642605408, 37.615977316265464 ], [ 127.076124512296502, 37.617351428093471 ], [ 127.078767056369912, 37.618188175308205 ], [ 127.084307454479017, 37.619877198970542 ], [ 127.089759641518128, 37.619539423033821 ], [ 127.096166905987445, 37.619267893864659 ], [ 127.099958255743047, 37.620138949721259 ], [ 127.105427158273727, 37.620401055423386 ], [ 127.113330882648185, 37.620053305142356 ] ] ] ] } },
{ "type": "Feature", "properties": { "nm": "성북구" }, "geometry": { "type": "MultiPolygon", "coordinates": [ [ [ [ 127.009797550968912, 37.580469950260145 ], [ 127.007837103311275, 37.581454145152065 ], [ 127.007077108204356, 37.582894033788847 ], [ 127.003928719466202, 37.587956214955589 ], [ 127.001706077061044, 37.589996338845033 ], [ 126.999349768642375, 37.59192462100183 ], [ 126.993304149345775, 37.591855130214554 ], [ 126.987748290358851, 37.592534056932593 ], [ 126.984272395143165, 37.594490921117341 ], [ 126.98109639955473, 37.595635356342093 ], [ 126.977772203295061, 37.597668475567708 ], [ 126.978035949126124, 37.600351597536786 ], [ 126.981959915717525, 37.602125192882447 ], [ 126.985846593660611, 37.603548094038828 ], [ 126.986543536592535, 37.606074522330445 ], [ 126.986117721720177, 37.609765480826425 ], [ 126.985904523072648, 37.614121141346637 ], [ 126.984471175350421, 37.61643597471268 ], [ 126.983414990836721, 37.619798490150721 ], [ 126.981488277403884, 37.624546990321292 ], [ 126.97964333057925, 37.628422800926835 ], [ 126.977033289812439, 37.62923928744393 ], [ 126.975683362340689, 37.632143754087764 ], [ 126.980934137375328, 37.634758543655082 ], [ 126.983765386474175, 37.636213717603852 ], [ 126.986098464522001, 37.635641823610179 ], [ 126.989215011414828, 37.633652439158645 ], [ 126.992841337061748, 37.631800625013888 ], [ 126.994821630678416, 37.630456492411604 ], [ 126.997411318010265, 37.628126338755884 ], [ 127.000268964070145, 37.625895576191304 ], [ 127.005008937203385, 37.624178633000518 ], [ 127.007734834154263, 37.623149660396422 ], [ 127.007445593040231, 37.621751290972931 ], [ 127.00755265375966, 37.621542428162037 ], [ 127.007294955618192, 37.620707967881131 ], [ 127.008318610697984, 37.619180123487482 ], [ 127.01096676386473, 37.61649282678998 ], [ 127.016622289217551, 37.614610633263446 ], [ 127.019508826498836, 37.613470146745016 ], [ 127.022232950348481, 37.612021934200413 ], [ 127.027378090256235, 37.612461135886022 ], [ 127.03138259402121, 37.61057210126166 ], [ 127.036841035918698, 37.612611831398851 ], [ 127.03956250221708, 37.615199633888174 ], [ 127.041979822039721, 37.61724446692434 ], [ 127.044381839840639, 37.619476816719562 ], [ 127.046599179983943, 37.622368386475394 ], [ 127.049563769531346, 37.623900753921994 ], [ 127.052568028004259, 37.621716326744959 ], [ 127.055026917996997, 37.619454387355681 ], [ 127.057910250160901, 37.617211807531397 ], [ 127.061026245862465, 37.615231013359775 ], [ 127.06692210151094, 37.615183455591541 ], [ 127.07220642605408, 37.615977316265464 ], [ 127.071405338536607, 37.610646012187104 ], [ 127.070956176370714, 37.606625332530832 ], [ 127.06707655635222, 37.606255125712998 ], [ 127.062630838190046, 37.60503706718066 ], [ 127.059925110909504, 37.602152689350106 ], [ 127.055432611296752, 37.600969034106107 ], [ 127.051280169490951, 37.600489769476816 ], [ 127.048555566517777, 37.597797048180155 ], [ 127.043844864715922, 37.596401073132135 ], [ 127.041183231994353, 37.595512855517541 ], [ 127.037905342269255, 37.591559544583454 ], [ 127.036277990349532, 37.590222725626639 ], [ 127.034176129462509, 37.587707131672325 ], [ 127.031780381079741, 37.585297319964624 ], [ 127.029352334840624, 37.582592992383006 ], [ 127.025914614455132, 37.580201048817514 ], [ 127.022335171145457, 37.578267741110309 ], [ 127.017663770422715, 37.579438258880288 ], [ 127.015369590769993, 37.581945995067969 ], [ 127.013277525511924, 37.581475313268591 ], [ 127.012853371201359, 37.581359538978468 ], [ 127.011833635759558, 37.581540151504186 ], [ 127.009797550968912, 37.580469950260145 ] ] ] ] } },
{ "type": "Feature", "properties": { "nm": "강북구" }, "geometry": { "type": "MultiPolygon", "coordinates": [ [ [ [ 127.004566699284055, 37.685079809890603 ], [ 127.005529440769678, 37.684865242063516 ], [ 127.006050767180113, 37.685053859353701 ], [ 127.006510965285443, 37.684871114999339 ], [ 127.00856231098436, 37.683143737341133 ], [ 127.011004580812426, 37.679227714668784 ], [ 127.013511699018693, 37.677099704843727 ], [ 127.016102545884678, 37.673421294181708 ], [ 127.017808171721526, 37.671064350332713 ], [ 127.018607692352475, 37.67025287001762 ], [ 127.017054368804438, 37.668010952151988 ], [ 127.015641134651503, 37.6648186099236 ], [ 127.014879366166085, 37.660620372949239 ], [ 127.013382809911249, 37.656387213872506 ], [ 127.012828253927324, 37.653964020610438 ], [ 127.012674653168432, 37.652115867058917 ], [ 127.014236050247462, 37.650071372575454 ], [ 127.01741195599169, 37.648741294512824 ], [ 127.019259918945863, 37.64884739096685 ], [ 127.02040024562092, 37.649082359477497 ], [ 127.022112696662589, 37.648293564431256 ], [ 127.02632571192774, 37.645809424910276 ], [ 127.028502996309641, 37.6443630365263 ], [ 127.032828783344328, 37.64126647457595 ], [ 127.03445982400028, 37.638197723627087 ], [ 127.037189022287762, 37.6364369099947 ], [ 127.039325678550284, 37.632982858471905 ], [ 127.043127090467891, 37.630040654279853 ], [ 127.047526316401914, 37.62708612255642 ], [ 127.049563769531346, 37.623900753921994 ], [ 127.046599179983943, 37.622368386475394 ], [ 127.044381839840639, 37.619476816719562 ], [ 127.041979822039721, 37.61724446692434 ], [ 127.03956250221708, 37.615199633888174 ], [ 127.036841035918698, 37.612611831398851 ], [ 127.03138259402121, 37.61057210126166 ], [ 127.027378090256235, 37.612461135886022 ], [ 127.022232950348481, 37.612021934200413 ], [ 127.019508826498836, 37.613470146745016 ], [ 127.016622289217551, 37.614610633263446 ], [ 127.01096676386473, 37.61649282678998 ], [ 127.008382289110713, 37.619111839003295 ], [ 127.007299946508965, 37.620700648847603 ], [ 127.007545165561353, 37.621554262326349 ], [ 127.007445315383222, 37.621751285440261 ], [ 127.007734834154263, 37.623149660396422 ], [ 127.005008937203385, 37.624178633000518 ], [ 127.000268964070145, 37.625895576191304 ], [ 126.997411318010265, 37.628126338755884 ], [ 126.994821630678416, 37.630456492411604 ], [ 126.992841337061748, 37.631800625013888 ], [ 126.989215011414828, 37.633652439158645 ], [ 126.986098464522001, 37.635641823610179 ], [ 126.983765386474175, 37.636213717603852 ], [ 126.985198289013837, 37.638157506406166 ], [ 126.985522890689396, 37.640914813796158 ], [ 126.983787875785296, 37.64307651924701 ], [ 126.984191654809564, 37.644515775955249 ], [ 126.985129188457378, 37.646048523053963 ], [ 126.984155767067307, 37.648131732213905 ], [ 126.982269162006716, 37.651326959033952 ], [ 126.979578506162866, 37.656087263385082 ], [ 126.982064046368649, 37.656319892865476 ], [ 126.98660520871978, 37.660042016596378 ], [ 126.988706428891447, 37.664091262508997 ], [ 126.992721129684554, 37.66573863639956 ], [ 126.99393317654885, 37.668535181370473 ], [ 126.993658237004581, 37.674830426568313 ], [ 126.993098561603617, 37.678545097010925 ], [ 126.994586029159336, 37.68088792575108 ], [ 126.998317056004197, 37.683373744993922 ], [ 127.002862921430491, 37.684166413164377 ], [ 127.004566699284055, 37.685079809890603 ] ] ] ] } },
{ "type": "Feature", "properties": { "nm": "도봉구" }, "geometry": { "type": "MultiPolygon", "coordinates": [ [ [ [ 127.014236050247462, 37.650071372575454 ], [ 127.012674653168432, 37.652115867058917 ], [ 127.012828253927324, 37.653964020610438 ], [ 127.013382809911249, 37.656387213872506 ], [ 127.014879366166085, 37.660620372949239 ], [ 127.015641134651503, 37.6648186099236 ], [ 127.017054370104731, 37.668010952800529 ], [ 127.018607692352475, 37.67025287001762 ], [ 127.017808173045509, 37.671064351377559 ], [ 127.016102545884678, 37.673421294181708 ], [ 127.013511699018693, 37.677099704843727 ], [ 127.011004580812426, 37.679227714668784 ], [ 127.00856231098436, 37.683143737341133 ], [ 127.008443057234501, 37.687203217181093 ], [ 127.008390815858107, 37.69158240496445 ], [ 127.010895261048574, 37.6970387288683 ], [ 127.01561432856748, 37.700662439877632 ], [ 127.02178793344774, 37.700269670862177 ], [ 127.027715992806264, 37.700159485429481 ], [ 127.029601413456575, 37.698175195447639 ], [ 127.0301983718917, 37.695468910442898 ], [ 127.032186816228759, 37.692802154031313 ], [ 127.037731805576513, 37.693228052566134 ], [ 127.040257921894579, 37.694679797504328 ], [ 127.04242405533229, 37.69498469413135 ], [ 127.044838341344459, 37.692936541101162 ], [ 127.048266478647903, 37.692898387016939 ], [ 127.051339265463938, 37.686703562663624 ], [ 127.051464872598231, 37.682157188626299 ], [ 127.050732586212362, 37.679734075292423 ], [ 127.048647281785975, 37.673788846802118 ], [ 127.048433738446121, 37.669723698198204 ], [ 127.050579074925309, 37.665117635048169 ], [ 127.051703184941289, 37.660472868950748 ], [ 127.053748515813396, 37.655776577289501 ], [ 127.054184488812567, 37.65112910179063 ], [ 127.055437185527694, 37.647877729811022 ], [ 127.054350122399157, 37.641159496242835 ], [ 127.052031106247725, 37.643305484782886 ], [ 127.051027946284307, 37.644754863309139 ], [ 127.049706275834765, 37.643148754904821 ], [ 127.046560642551128, 37.640858604152584 ], [ 127.045766292212093, 37.637876116002076 ], [ 127.043492649314715, 37.633405688732424 ], [ 127.043127090467891, 37.630040654279853 ], [ 127.039325678550284, 37.632982858471905 ], [ 127.037189022287762, 37.6364369099947 ], [ 127.03445982400028, 37.638197723627087 ], [ 127.032828783344328, 37.64126647457595 ], [ 127.028502996309641, 37.6443630365263 ], [ 127.02632571192774, 37.645809424910276 ], [ 127.022112698029488, 37.648293565443858 ], [ 127.02040024562092, 37.649082359477497 ], [ 127.019259920340403, 37.64884739203125 ], [ 127.01741195599169, 37.648741294512824 ], [ 127.014236050247462, 37.650071372575454 ] ] ] ] } },
{ "type": "Feature", "properties": { "nm": "노원구" }, "geometry": { "type": "MultiPolygon", "coordinates": [ [ [ [ 127.111808934536711, 37.637461427536273 ], [ 127.112141798353647, 37.633974021383125 ], [ 127.1107833157633, 37.630788264186563 ], [ 127.106944965295583, 37.628068782490722 ], [ 127.104914830370106, 37.624561477537789 ], [ 127.105427158273727, 37.620401055423386 ], [ 127.099958255743047, 37.620138949721259 ], [ 127.096166905987445, 37.619267893864659 ], [ 127.089759641518128, 37.619539423033821 ], [ 127.084307454479017, 37.619877198970542 ], [ 127.078767056369912, 37.618188175308205 ], [ 127.076124512296502, 37.617351428093471 ], [ 127.07220642605408, 37.615977316265464 ], [ 127.06692210151094, 37.615183455591541 ], [ 127.061026245862465, 37.615231013359775 ], [ 127.057910250160901, 37.617211807531397 ], [ 127.055026917996997, 37.619454387355681 ], [ 127.052568028004259, 37.621716326744959 ], [ 127.049563769531346, 37.623900753921994 ], [ 127.047526316401914, 37.62708612255642 ], [ 127.043127090467891, 37.630040654279853 ], [ 127.043492649314715, 37.633405688732424 ], [ 127.045766292212093, 37.637876116002076 ], [ 127.046560642551128, 37.640858604152584 ], [ 127.049706275759476, 37.643148760436809 ], [ 127.051027946284307, 37.644754863309139 ], [ 127.052031106172819, 37.643305490314845 ], [ 127.054350122399157, 37.641159496242835 ], [ 127.055437185527694, 37.647877729811022 ], [ 127.054184488812567, 37.65112910179063 ], [ 127.053748515813396, 37.655776577289501 ], [ 127.051703184941289, 37.660472868950748 ], [ 127.050579074925309, 37.665117635048169 ], [ 127.048433738446121, 37.669723698198204 ], [ 127.048647281785975, 37.673788846802118 ], [ 127.050732586212362, 37.679734075292423 ], [ 127.051464872598231, 37.682157188626299 ], [ 127.051339265463938, 37.686703562663624 ], [ 127.055146352383787, 37.68881341340677 ], [ 127.058281197613752, 37.689677897957239 ], [ 127.060944603196859, 37.691781456819299 ], [ 127.062944624229402, 37.694660175196347 ], [ 127.066849783455439, 37.694578659821779 ], [ 127.068908878518968, 37.693852661527437 ], [ 127.071412260230744, 37.693859477723791 ], [ 127.074276480990648, 37.694841808365297 ], [ 127.077002785737719, 37.695708263684416 ], [ 127.081104769123584, 37.696137468681819 ], [ 127.084366967415605, 37.69195664832835 ], [ 127.087492104701766, 37.689907425763458 ], [ 127.090551884256101, 37.689570247087374 ], [ 127.092710481750359, 37.689949825412853 ], [ 127.09575788959603, 37.688017807593226 ], [ 127.09418157860172, 37.683002061773905 ], [ 127.092499926504473, 37.679590709051816 ], [ 127.091944049027546, 37.678941407479016 ], [ 127.092943724495214, 37.677287809918063 ], [ 127.094732131555446, 37.674028034516944 ], [ 127.095840659163642, 37.669985792626868 ], [ 127.094703346761705, 37.664570514669876 ], [ 127.09325681637651, 37.661974239102761 ], [ 127.091690237407164, 37.66006355359012 ], [ 127.091511804271974, 37.657838991171168 ], [ 127.092676450843655, 37.654838048785898 ], [ 127.093536546786325, 37.651834831799 ], [ 127.093741473469422, 37.64688353105835 ], [ 127.095552689325203, 37.644397321040579 ], [ 127.10009109303472, 37.644423649202331 ], [ 127.102841258703137, 37.645306949123537 ], [ 127.10587536674872, 37.645310289248918 ], [ 127.108606809246922, 37.643735850051314 ], [ 127.111243581093021, 37.641828305338151 ], [ 127.111808934536711, 37.637461427536273 ] ] ] ] } },
{ "type": "Feature", "properties": { "nm": "은평구" }, "geometry": { "type": "MultiPolygon", "coordinates": [ [ [ [ 126.954832123677974, 37.654286713999362 ], [ 126.956319303025325, 37.653288938750237 ], [ 126.957083629018101, 37.651735184286999 ], [ 126.958685437989686, 37.646539804470599 ], [ 126.959771634215912, 37.641680448010106 ], [ 126.961319973383198, 37.63810905566551 ], [ 126.96263437854914, 37.635530881093459 ], [ 126.962709676614679, 37.632889321650865 ], [ 126.961101655704368, 37.631291137535811 ], [ 126.957833713817635, 37.629085009717954 ], [ 126.953714984294749, 37.627433170905583 ], [ 126.950412691542226, 37.626419552942039 ], [ 126.949229969692624, 37.623702516935495 ], [ 126.949822519434065, 37.620391023546418 ], [ 126.950564736674565, 37.614894557564519 ], [ 126.949819174587759, 37.60987051531437 ], [ 126.945799983137107, 37.60717246916488 ], [ 126.94335215754657, 37.605545750104568 ], [ 126.940511542115445, 37.601957693092118 ], [ 126.940404863891871, 37.598468372241705 ], [ 126.937467108735987, 37.597578243553436 ], [ 126.931915306119535, 37.595579633819156 ], [ 126.929429092850896, 37.593484644880107 ], [ 126.927836137912422, 37.590924560136862 ], [ 126.925562248818935, 37.587417987218842 ], [ 126.922751382002687, 37.585556139052706 ], [ 126.920630683456721, 37.583770438971598 ], [ 126.91585065471871, 37.584186616646704 ], [ 126.915963457629587, 37.585623438936331 ], [ 126.915326155538224, 37.585421209206238 ], [ 126.913451342739378, 37.586479039193776 ], [ 126.911480390487839, 37.585412842543349 ], [ 126.909004232811839, 37.583083135281584 ], [ 126.906169041132827, 37.580417269526031 ], [ 126.903460265447521, 37.577836536486046 ], [ 126.902736262301744, 37.575694545965277 ], [ 126.89715998452364, 37.579338638056583 ], [ 126.889744761025867, 37.584098286506595 ], [ 126.888716980714889, 37.584750301598369 ], [ 126.885031566314055, 37.587888455906118 ], [ 126.88233416361706, 37.590404439097419 ], [ 126.886218145107946, 37.594626625287539 ], [ 126.887207956283802, 37.593894998375141 ], [ 126.885782822629508, 37.591262846150428 ], [ 126.88670081942513, 37.589070110965721 ], [ 126.891813406155265, 37.588776197430398 ], [ 126.897599922075642, 37.58916233893077 ], [ 126.899596923891394, 37.592288741928009 ], [ 126.90035509799263, 37.594211236060374 ], [ 126.901326126758534, 37.596734382581808 ], [ 126.900658194536561, 37.601181534228616 ], [ 126.901673412648108, 37.605284038498283 ], [ 126.900731026825795, 37.610327701572025 ], [ 126.901817398117814, 37.615053870468635 ], [ 126.904234989766934, 37.618712640345457 ], [ 126.905816162815867, 37.620893022448683 ], [ 126.90711251895182, 37.623765235648143 ], [ 126.908568858355991, 37.628312414037111 ], [ 126.907665125797067, 37.633141344127594 ], [ 126.910854458727542, 37.635316601112756 ], [ 126.911210370938335, 37.635905581827849 ], [ 126.910308639290335, 37.637986073893607 ], [ 126.910771068206827, 37.639996145398072 ], [ 126.911594692096827, 37.642337621000081 ], [ 126.91182699165094, 37.644446777961186 ], [ 126.908222903513689, 37.64636732721663 ], [ 126.905433551599657, 37.648641349596311 ], [ 126.904954456699073, 37.649055331707977 ], [ 126.905952597033718, 37.648694107056741 ], [ 126.908731155104036, 37.647224995030278 ], [ 126.912567425672705, 37.645313407373635 ], [ 126.919798103255118, 37.64555769789937 ], [ 126.925614659574904, 37.647180467677565 ], [ 126.92785842655762, 37.648769383386046 ], [ 126.930409759296467, 37.649951465163312 ], [ 126.935886365926464, 37.651606513231322 ], [ 126.938155486621554, 37.65413713931914 ], [ 126.940459227765672, 37.656754478415991 ], [ 126.9433538903792, 37.657990363267366 ], [ 126.947208249484618, 37.65862071302238 ], [ 126.948935926933856, 37.656663564345479 ], [ 126.954832123677974, 37.654286713999362 ] ] ] ] } },
{ "type": "Feature", "properties": { "nm": "서대문구" }, "geometry": { "type": "MultiPolygon", "coordinates": [ [ [ [ 126.952864496941558, 37.601041597818899 ], [ 126.953804443415876, 37.598879786463229 ], [ 126.955087075673845, 37.599225659699691 ], [ 126.956180948745114, 37.599005365969596 ], [ 126.958002387232099, 37.597160367704241 ], [ 126.957879068457856, 37.592617032162877 ], [ 126.957414637687194, 37.588367772931782 ], [ 126.957810936976983, 37.583219194406169 ], [ 126.957586637141276, 37.580446194814904 ], [ 126.954714192587318, 37.578673129399128 ], [ 126.956052348155609, 37.576064073123575 ], [ 126.95847969507993, 37.573896832320848 ], [ 126.961697413814974, 37.570836900893575 ], [ 126.963534837411444, 37.569069918071968 ], [ 126.966988379016684, 37.565886260052295 ], [ 126.968522758330238, 37.56355674914542 ], [ 126.969023055476882, 37.562202139333522 ], [ 126.965465777336973, 37.560368051930006 ], [ 126.961806407358353, 37.558935010417031 ], [ 126.959414996423902, 37.55758227244759 ], [ 126.954508020067166, 37.557309384485109 ], [ 126.948534755357684, 37.556965709929344 ], [ 126.941484697617852, 37.556530594760069 ], [ 126.936983365519893, 37.555140949035618 ], [ 126.931128869751461, 37.557189380750842 ], [ 126.926732134796922, 37.560414214295527 ], [ 126.925070926587807, 37.565323267550561 ], [ 126.921266497429244, 37.566470298518325 ], [ 126.917488446915115, 37.567534210867016 ], [ 126.915267106778103, 37.568488380821961 ], [ 126.910283342849482, 37.570770522357193 ], [ 126.906867933511222, 37.572788608969063 ], [ 126.902736262301744, 37.575694545965277 ], [ 126.903460265447521, 37.577836536486046 ], [ 126.906169041132827, 37.580417269526031 ], [ 126.909004232811839, 37.583083135281584 ], [ 126.911480319335652, 37.585412454830426 ], [ 126.913430225231863, 37.586490371136826 ], [ 126.915325518626219, 37.585425746479054 ], [ 126.915963386880293, 37.585623051256682 ], [ 126.91585058396592, 37.584186228829701 ], [ 126.920630683456721, 37.583770438971598 ], [ 126.922751382002687, 37.585556139052706 ], [ 126.925562248818935, 37.587417987218842 ], [ 126.927836137912422, 37.590924560136862 ], [ 126.929429092850896, 37.593484644880107 ], [ 126.931915306119535, 37.595579633819156 ], [ 126.937467108735987, 37.597578243553436 ], [ 126.940404863891871, 37.598468372241705 ], [ 126.940511542115445, 37.601957693092118 ], [ 126.94335215754657, 37.605545750104568 ], [ 126.945799983137107, 37.60717246916488 ], [ 126.949819174587759, 37.60987051531437 ], [ 126.953039452535151, 37.605674949268909 ], [ 126.952864496941558, 37.601041597818899 ] ] ] ] } },
{ "type": "Feature", "properties": { "nm": "마포구" }, "geometry": { "type": "MultiPolygon", "coordinates": [ [ [ [ 126.889744761025867, 37.584098286506595 ], [ 126.89715998452364, 37.579338638056583 ], [ 126.902736262301744, 37.575694545965277 ], [ 126.906867933511222, 37.572788608969063 ], [ 126.910283342849482, 37.570770522357193 ], [ 126.915267106778103, 37.568488380821961 ], [ 126.917488446915115, 37.567534210867016 ], [ 126.921266497429244, 37.566470298518325 ], [ 126.925070926587807, 37.565323267550561 ], [ 126.926732134796922, 37.560414214295527 ], [ 126.931128869751461, 37.557189380750842 ], [ 126.936983365519893, 37.555140949035618 ], [ 126.941484697617852, 37.556530594760069 ], [ 126.948534755357684, 37.556965709929344 ], [ 126.954508020067166, 37.557309384485109 ], [ 126.959414996423902, 37.55758227244759 ], [ 126.961806407358353, 37.558935010417031 ], [ 126.961786684711399, 37.558437123037251 ], [ 126.963038727577938, 37.557154643762225 ], [ 126.962221196145919, 37.555514449378585 ], [ 126.962368853680388, 37.551943615528522 ], [ 126.963411896068422, 37.550264578892367 ], [ 126.963654909449744, 37.549162014637695 ], [ 126.959664630589941, 37.546315848323786 ], [ 126.957777671150836, 37.543502433376062 ], [ 126.956820050770702, 37.541130384986054 ], [ 126.953809707996427, 37.538179567248896 ], [ 126.950720366258309, 37.536148778117131 ], [ 126.947834705063457, 37.535600754259505 ], [ 126.944663537561453, 37.534362412510326 ], [ 126.940694452682891, 37.536478797528801 ], [ 126.937102566381583, 37.538519641568811 ], [ 126.934240406827058, 37.539878255133644 ], [ 126.930979782770663, 37.540831446737734 ], [ 126.928883893859535, 37.54014006403581 ], [ 126.926070151723223, 37.539510536266022 ], [ 126.922369467816665, 37.541108681162427 ], [ 126.915788293253641, 37.541424550302644 ], [ 126.908032823256804, 37.541418808737077 ], [ 126.904611590742746, 37.542008518869586 ], [ 126.901053900686861, 37.545815360881775 ], [ 126.897236609983224, 37.548555947805205 ], [ 126.89213955049631, 37.550502143937273 ], [ 126.887347543957816, 37.552749359565595 ], [ 126.884311260442772, 37.55432612137826 ], [ 126.880858612698447, 37.555787969099192 ], [ 126.874267774594827, 37.559433165300234 ], [ 126.869044359293298, 37.561942706797133 ], [ 126.866659535368868, 37.562898218407966 ], [ 126.863081318800013, 37.564993599265954 ], [ 126.86002146969544, 37.566931381478312 ], [ 126.857556048537731, 37.568494166478096 ], [ 126.854099458481357, 37.571275904756554 ], [ 126.853452077240931, 37.572546341390201 ], [ 126.85839991350241, 37.574883824059953 ], [ 126.861115830513668, 37.575959546073385 ], [ 126.863392672220314, 37.576858003794165 ], [ 126.869390997713083, 37.577761444704493 ], [ 126.876067951192965, 37.578750825560434 ], [ 126.877571271041333, 37.579694181943253 ], [ 126.877432996743181, 37.580300935200469 ], [ 126.87696661197883, 37.583356038111205 ], [ 126.877265654811268, 37.585571453493948 ], [ 126.879533708498556, 37.588082311600239 ], [ 126.88233416361706, 37.590404439097419 ], [ 126.885031566314055, 37.587888455906118 ], [ 126.888716980714889, 37.584750301598369 ], [ 126.889744761025867, 37.584098286506595 ] ] ] ] } },
{ "type": "Feature", "properties": { "nm": "양천구" }, "geometry": { "type": "MultiPolygon", "coordinates": [ [ [ [ 126.875577407477536, 37.547000696179609 ], [ 126.880368872285828, 37.547329146436553 ], [ 126.883693647274796, 37.545001667481344 ], [ 126.884989612065695, 37.542716065401002 ], [ 126.887148258107672, 37.538488801726245 ], [ 126.889887641707162, 37.533989566816899 ], [ 126.888718657981968, 37.532449841038087 ], [ 126.890201836156805, 37.531666931098371 ], [ 126.889854909642935, 37.530546281578303 ], [ 126.885233745154039, 37.529009681764812 ], [ 126.881629629550446, 37.527370807546667 ], [ 126.879947563252301, 37.525246474157228 ], [ 126.879113349246609, 37.518953718411595 ], [ 126.878851360777659, 37.517150852464688 ], [ 126.877471253551931, 37.51394520584261 ], [ 126.875168335916626, 37.510628111995231 ], [ 126.874484295654483, 37.506771337984667 ], [ 126.873126885226171, 37.503771542700449 ], [ 126.872413064239367, 37.504037686632991 ], [ 126.870271086973773, 37.504967268137591 ], [ 126.864157362055366, 37.506298742567587 ], [ 126.860103685317554, 37.507138702535904 ], [ 126.857661646004274, 37.509536321817414 ], [ 126.852459961719333, 37.510275127219572 ], [ 126.847412131372138, 37.509135127205248 ], [ 126.845056813329521, 37.507058855514408 ], [ 126.841018870320326, 37.505388507011141 ], [ 126.838361384518763, 37.504228402038585 ], [ 126.835239627205084, 37.503393540804588 ], [ 126.833148164760516, 37.504075428930939 ], [ 126.831066339839325, 37.506486135353924 ], [ 126.828614438051659, 37.50855560659403 ], [ 126.826146766616247, 37.509225293492833 ], [ 126.823862103786766, 37.515148067298249 ], [ 126.825319209155808, 37.51992491034494 ], [ 126.825747278411711, 37.523528244145282 ], [ 126.827964400459052, 37.525842777119905 ], [ 126.828101307197045, 37.527936962254145 ], [ 126.825764759644102, 37.529996441269688 ], [ 126.823376181258425, 37.532962728285248 ], [ 126.822117564860434, 37.538067987678211 ], [ 126.824081323541392, 37.541703337572351 ], [ 126.826398748391213, 37.545270824166188 ], [ 126.82912645557856, 37.546391514970111 ], [ 126.829953348026692, 37.543103091031746 ], [ 126.833279143084283, 37.540970610857173 ], [ 126.834518173585181, 37.538069315976877 ], [ 126.836158148869927, 37.533575098517687 ], [ 126.838266805635072, 37.530117192189643 ], [ 126.840223501241368, 37.527777911161031 ], [ 126.847750504636551, 37.52770620994788 ], [ 126.851681893593806, 37.52825015611765 ], [ 126.85905883540957, 37.529172609540488 ], [ 126.863289258796641, 37.53001509928982 ], [ 126.863611071356843, 37.534056874159866 ], [ 126.86355832110047, 37.537396053534771 ], [ 126.863209720022709, 37.541786929015629 ], [ 126.862942588388236, 37.547130380784601 ], [ 126.864383340177426, 37.550685265268477 ], [ 126.867332052739101, 37.549711873572065 ], [ 126.870705300184966, 37.547775411740801 ], [ 126.875577407477536, 37.547000696179609 ] ] ] ] } },
{ "type": "Feature", "properties": { "nm": "강서구" }, "geometry": { "type": "MultiPolygon", "coordinates": [ [ [ [ 126.809021159509825, 37.600643260549958 ], [ 126.810746042915397, 37.599447027047042 ], [ 126.814236130001234, 37.597408826221368 ], [ 126.816696453491872, 37.595616112557153 ], [ 126.819754417305617, 37.592699583370454 ], [ 126.82205227128803, 37.591133874257849 ], [ 126.825616508367588, 37.588885466897864 ], [ 126.828662139241686, 37.587209227534991 ], [ 126.832955329832842, 37.585095116625673 ], [ 126.835767177932496, 37.583395622894564 ], [ 126.838617253232385, 37.581483633358644 ], [ 126.842357620526101, 37.579300075135372 ], [ 126.844071137554934, 37.578289718966616 ], [ 126.847838622125039, 37.575579904390388 ], [ 126.853452077240931, 37.572546341390201 ], [ 126.854099458481357, 37.571275904756554 ], [ 126.857556048537731, 37.568494166478096 ], [ 126.86002146969544, 37.566931381478312 ], [ 126.863081318800013, 37.564993599265954 ], [ 126.866659535368868, 37.562898218407966 ], [ 126.869044359293298, 37.561942706797133 ], [ 126.874267774594827, 37.559433165300234 ], [ 126.880858612698447, 37.555787969099192 ], [ 126.878554863737492, 37.551977142763526 ], [ 126.880368872285828, 37.547329146436553 ], [ 126.875577407477536, 37.547000696179609 ], [ 126.870705300184966, 37.547775411740801 ], [ 126.867332052739101, 37.549711873572065 ], [ 126.864383340177426, 37.550685265268477 ], [ 126.862942588388236, 37.547130380784601 ], [ 126.863209720022709, 37.541786929015629 ], [ 126.86355832110047, 37.537396053534771 ], [ 126.863611071356843, 37.534056874159866 ], [ 126.863289258796641, 37.53001509928982 ], [ 126.85905883540957, 37.529172609540488 ], [ 126.851681893593806, 37.52825015611765 ], [ 126.847750504636551, 37.52770620994788 ], [ 126.840223501241368, 37.527777911161031 ], [ 126.838266805635072, 37.530117192189643 ], [ 126.836158148869927, 37.533575098517687 ], [ 126.834518173585181, 37.538069315976877 ], [ 126.833279143084283, 37.540970610857173 ], [ 126.829953348026692, 37.543103091031746 ], [ 126.82912645557856, 37.546391514970111 ], [ 126.826398748391213, 37.545270824166188 ], [ 126.824081323541392, 37.541703337572351 ], [ 126.818110537982236, 37.540661349678132 ], [ 126.812661613119559, 37.54094960046509 ], [ 126.807789905315261, 37.543358934425875 ], [ 126.806248060747862, 37.54435907635316 ], [ 126.806011946223009, 37.543529401341729 ], [ 126.800389737578683, 37.541250327955318 ], [ 126.79921519393254, 37.538593284247362 ], [ 126.795817400232423, 37.537379608768553 ], [ 126.79418096420649, 37.540619983666318 ], [ 126.791588534109295, 37.543016474144103 ], [ 126.788390702959887, 37.545165033752426 ], [ 126.784338883967521, 37.546080435313165 ], [ 126.778571888199764, 37.546928127038363 ], [ 126.774239540341995, 37.548851389602923 ], [ 126.771967515162018, 37.548420973585515 ], [ 126.770863699664986, 37.549158286180159 ], [ 126.769928676482706, 37.550542031375493 ], [ 126.770267443926897, 37.551086526977514 ], [ 126.768488622325194, 37.551848206863156 ], [ 126.767114714529512, 37.555495980853458 ], [ 126.772049319839397, 37.557180479498058 ], [ 126.773775862134883, 37.55984199345933 ], [ 126.777226442353907, 37.560915868580032 ], [ 126.776706210076327, 37.563532883249572 ], [ 126.775301131604422, 37.565837160661353 ], [ 126.775169681138792, 37.567552028945556 ], [ 126.776276785791666, 37.567005593473809 ], [ 126.776831036130361, 37.566246213842824 ], [ 126.779435747427883, 37.567702542586623 ], [ 126.78165587191782, 37.569161610379204 ], [ 126.780835251074024, 37.570140361686995 ], [ 126.78216673916026, 37.57063917046267 ], [ 126.783038316478297, 37.573280476850009 ], [ 126.787438590615437, 37.575529890152225 ], [ 126.788186169891574, 37.575954002873885 ], [ 126.789124196405197, 37.575590982199891 ], [ 126.789971991467482, 37.577899570488441 ], [ 126.791371435395135, 37.580845521200807 ], [ 126.792375099811153, 37.579506695060417 ], [ 126.792994562188667, 37.578307632235436 ], [ 126.794144588066999, 37.58306511274845 ], [ 126.795210858018962, 37.585101241724665 ], [ 126.796271679001592, 37.584047547845707 ], [ 126.797296422155, 37.585827818581279 ], [ 126.800174472498242, 37.588269961078176 ], [ 126.799850208251982, 37.591523990991902 ], [ 126.798283637088232, 37.59402261275941 ], [ 126.797390821775821, 37.596673472772132 ], [ 126.797652991901245, 37.59911838108718 ], [ 126.799241806198296, 37.601096900355536 ], [ 126.801981619431899, 37.60426622135143 ], [ 126.804600461273751, 37.603523057803173 ], [ 126.809021159509825, 37.600643260549958 ] ] ] ] } },
{ "type": "Feature", "properties": { "nm": "구로구" }, "geometry": { "type": "MultiPolygon", "coordinates": [ [ [ [ 126.879113349246609, 37.518953718411595 ], [ 126.882562451613325, 37.51568763904384 ], [ 126.885239777331606, 37.513752189661474 ], [ 126.888112375412305, 37.512724956132558 ], [ 126.890732681458758, 37.510835447796737 ], [ 126.893242756099866, 37.506122343492834 ], [ 126.892999159661116, 37.501828521285951 ], [ 126.894133906440146, 37.497455315744958 ], [ 126.894840523645499, 37.494243038714359 ], [ 126.895467877267549, 37.491782279276613 ], [ 126.897038624450545, 37.488554675115999 ], [ 126.900070904124263, 37.485956306380352 ], [ 126.903051182753543, 37.484729001290582 ], [ 126.900754605496672, 37.482016974049706 ], [ 126.898709857556725, 37.479595144952761 ], [ 126.892436790823197, 37.478950182622981 ], [ 126.888094437791665, 37.480340857338916 ], [ 126.885471065973249, 37.482782020488088 ], [ 126.882426222540275, 37.484873073349718 ], [ 126.878846187469662, 37.486459656523493 ], [ 126.877955172762725, 37.486277490147621 ], [ 126.876344979098491, 37.485779456802632 ], [ 126.874999189539778, 37.488098643743953 ], [ 126.872440466759116, 37.489370645390593 ], [ 126.873905942178837, 37.490145831298932 ], [ 126.873935345646942, 37.490951998154543 ], [ 126.871950519978654, 37.490711595042328 ], [ 126.870456211735885, 37.490029453704054 ], [ 126.869616447238428, 37.492303718230403 ], [ 126.868215841784576, 37.495105982310882 ], [ 126.867295576498961, 37.49452645859072 ], [ 126.86682431584687, 37.494223887158256 ], [ 126.867418210481674, 37.493766763573724 ], [ 126.864619044241479, 37.491503845016659 ], [ 126.861673038225788, 37.49023018401585 ], [ 126.859368896793967, 37.48766624185162 ], [ 126.85692177282607, 37.48574076186685 ], [ 126.853219942767353, 37.482927351800747 ], [ 126.847424071449453, 37.481839853952245 ], [ 126.845940534246949, 37.479698229261906 ], [ 126.8452240261594, 37.474575949128045 ], [ 126.841806936848982, 37.474807997983291 ], [ 126.836738172143015, 37.475104678568819 ], [ 126.833403776122836, 37.477193960979697 ], [ 126.831293329425165, 37.477354252085249 ], [ 126.828745209761848, 37.476245519484678 ], [ 126.823214105805306, 37.475960755448007 ], [ 126.820003766836734, 37.475705455399705 ], [ 126.815139991284099, 37.475100925089059 ], [ 126.816093649180473, 37.476895522417621 ], [ 126.818779126564195, 37.479657245878343 ], [ 126.819563145060116, 37.483700541439774 ], [ 126.821009445897403, 37.486116719593724 ], [ 126.822729776779752, 37.488014940798521 ], [ 126.821632685261235, 37.490287034816824 ], [ 126.819552651227511, 37.491100301696036 ], [ 126.81483740493745, 37.493569642657441 ], [ 126.814123000077757, 37.496907122168139 ], [ 126.817902557792351, 37.498456260927199 ], [ 126.820417461346977, 37.501380478864291 ], [ 126.821732513222017, 37.503367074443851 ], [ 126.82249126004271, 37.506185684877245 ], [ 126.826146766616247, 37.509225293492833 ], [ 126.828614438051659, 37.50855560659403 ], [ 126.831066339839325, 37.506486135353924 ], [ 126.833148164753808, 37.504075431934254 ], [ 126.835239627205084, 37.503393540804588 ], [ 126.83836138450242, 37.504228409546876 ], [ 126.841018870320326, 37.505388507011141 ], [ 126.845056813329521, 37.507058855514408 ], [ 126.847412131372138, 37.509135127205248 ], [ 126.852459961719333, 37.510275127219572 ], [ 126.857661646004274, 37.509536321817414 ], [ 126.860103685317554, 37.507138702535904 ], [ 126.864157362055366, 37.506298742567587 ], [ 126.870271086973773, 37.504967268137591 ], [ 126.872413064239367, 37.504037686632991 ], [ 126.873126885226171, 37.503771542700449 ], [ 126.874484295654483, 37.506771337984667 ], [ 126.875168335916626, 37.510628111995231 ], [ 126.877471253551931, 37.51394520584261 ], [ 126.878851360777659, 37.517150852464688 ], [ 126.879113349246609, 37.518953718411595 ] ] ] ] } },
{ "type": "Feature", "properties": { "nm": "금천구" }, "geometry": { "type": "MultiPolygon", "coordinates": [ [ [ [ 126.876344979098491, 37.485779456802632 ], [ 126.877955172762725, 37.486277490147621 ], [ 126.878846187469662, 37.486459656523493 ], [ 126.882426222540275, 37.484873073349718 ], [ 126.885471065973249, 37.482782020488088 ], [ 126.888094437791665, 37.480340857338916 ], [ 126.892436790823197, 37.478950182622981 ], [ 126.898709857556725, 37.479595144952761 ], [ 126.905175752322904, 37.480002271405915 ], [ 126.909181140620319, 37.479666590119116 ], [ 126.910878463682721, 37.474648627537213 ], [ 126.909292918660284, 37.470836579608253 ], [ 126.911182569186778, 37.467741965969111 ], [ 126.91304465164346, 37.464728638316586 ], [ 126.913904166883512, 37.461754007515097 ], [ 126.915838519869823, 37.457621429122305 ], [ 126.921243367525122, 37.456333927989313 ], [ 126.923231715205702, 37.454355614863751 ], [ 126.926125331942416, 37.452313717753199 ], [ 126.927736377663535, 37.449067130058467 ], [ 126.923361370736544, 37.44582702261696 ], [ 126.921916517401144, 37.443283428962076 ], [ 126.920025111040275, 37.440503260318437 ], [ 126.915230391846052, 37.439589411042078 ], [ 126.911679658909776, 37.437729857729977 ], [ 126.909281370356126, 37.43436648539398 ], [ 126.903992875642402, 37.434641657453277 ], [ 126.901388069938633, 37.436714358360646 ], [ 126.899607422497752, 37.438807938023622 ], [ 126.898211131354643, 37.443219907060119 ], [ 126.896114389625737, 37.445702111143682 ], [ 126.894980620110985, 37.447196416452663 ], [ 126.895815156377637, 37.448443219522005 ], [ 126.895229635735134, 37.449906482194123 ], [ 126.892845519815808, 37.452094099436742 ], [ 126.889462739118173, 37.453343857375017 ], [ 126.887093205358113, 37.456333347663893 ], [ 126.886329206153761, 37.461071673797925 ], [ 126.883782144068505, 37.463181518894466 ], [ 126.88326276906399, 37.464796892362727 ], [ 126.884395137638393, 37.465956089307831 ], [ 126.882900216304265, 37.467452919793843 ], [ 126.880812726487463, 37.470106707526092 ], [ 126.878680138166857, 37.472959530298951 ], [ 126.877232211334118, 37.475092327112797 ], [ 126.874771780203332, 37.479466637231404 ], [ 126.87309487339796, 37.483190222430885 ], [ 126.87208460978843, 37.485108967174675 ], [ 126.872911995048312, 37.486194451060811 ], [ 126.876344979098491, 37.485779456802632 ] ] ] ] } },
{ "type": "Feature", "properties": { "nm": "영등포구" }, "geometry": { "type": "MultiPolygon", "coordinates": [ [ [ [ 126.880858612698447, 37.555787969099192 ], [ 126.884311260442772, 37.55432612137826 ], [ 126.887347543957816, 37.552749359565595 ], [ 126.89213955049631, 37.550502143937273 ], [ 126.897236609983224, 37.548555947805205 ], [ 126.901053900686861, 37.545815360881775 ], [ 126.904611590742746, 37.542008518869586 ], [ 126.908032823256804, 37.541418808737077 ], [ 126.915788293253641, 37.541424550302644 ], [ 126.922369467816665, 37.541108681162427 ], [ 126.926070151723223, 37.539510536266022 ], [ 126.928883893859535, 37.54014006403581 ], [ 126.930979782770663, 37.540831446737734 ], [ 126.934242133095495, 37.539877422698993 ], [ 126.937102566381583, 37.538519641568811 ], [ 126.940694452682891, 37.536478797528801 ], [ 126.944663537561453, 37.534362412510326 ], [ 126.948423538846185, 37.528887995527512 ], [ 126.949880806039403, 37.525079206818212 ], [ 126.949885076988778, 37.519820774188467 ], [ 126.949321228993625, 37.517381797052572 ], [ 126.942314759171339, 37.516522111832742 ], [ 126.93770369134063, 37.516034642950537 ], [ 126.932126391582585, 37.515628348354078 ], [ 126.92697963363365, 37.514475204858073 ], [ 126.92565756835603, 37.512011519989329 ], [ 126.923557760646943, 37.508008222106341 ], [ 126.922872020761233, 37.50630229240852 ], [ 126.920993695875012, 37.501661626973714 ], [ 126.919392613076681, 37.497713591563752 ], [ 126.913941641598413, 37.496538400411033 ], [ 126.911843609341375, 37.495871568022309 ], [ 126.909507015386183, 37.492644796979228 ], [ 126.907315041906088, 37.489825647963777 ], [ 126.905100403137524, 37.487326588043288 ], [ 126.903051182753543, 37.484729001290582 ], [ 126.900070904124263, 37.485956306380352 ], [ 126.897038624450545, 37.488554675115999 ], [ 126.895467877267549, 37.491782279276613 ], [ 126.894840523645499, 37.494243038714359 ], [ 126.894133906440146, 37.497455315744958 ], [ 126.892999159661116, 37.501828521285951 ], [ 126.893242756099866, 37.506122343492834 ], [ 126.890732681458758, 37.510835447796737 ], [ 126.888112375412305, 37.512724956132558 ], [ 126.885239777331606, 37.513752189661474 ], [ 126.882562451613325, 37.51568763904384 ], [ 126.879113349246609, 37.518953718411595 ], [ 126.879947563252301, 37.525246474157228 ], [ 126.881629629550446, 37.527370807546667 ], [ 126.885233745154039, 37.529009681764812 ], [ 126.889854909642935, 37.530546281578303 ], [ 126.890237904283012, 37.531631454222165 ], [ 126.888718657981968, 37.532449841038087 ], [ 126.889842824069135, 37.533924186693412 ], [ 126.887148258107672, 37.538488801726245 ], [ 126.884989612065695, 37.542716065401002 ], [ 126.883693647274796, 37.545001667481344 ], [ 126.880368872285828, 37.547329146436553 ], [ 126.878554863737492, 37.551977142763526 ], [ 126.880858612698447, 37.555787969099192 ] ] ] ] } },
{ "type": "Feature", "properties": { "nm": "동작구" }, "geometry": { "type": "MultiPolygon", "coordinates": [ [ [ [ 126.954989747073668, 37.515876287652752 ], [ 126.958727881204936, 37.514404499605135 ], [ 126.961834028901791, 37.513101174366795 ], [ 126.965614878941892, 37.510626292684229 ], [ 126.969405006412615, 37.509200283562372 ], [ 126.97107648797838, 37.508634474350181 ], [ 126.97737920393331, 37.506721254481242 ], [ 126.981834580636203, 37.506034903329699 ], [ 126.98021143196425, 37.50448785921364 ], [ 126.97983709793435, 37.5042769515576 ], [ 126.982473924814443, 37.501782191296506 ], [ 126.983673449671031, 37.497659223945497 ], [ 126.982743141302521, 37.492439260426309 ], [ 126.98247494465744, 37.489344979397259 ], [ 126.982049038327006, 37.484009570348654 ], [ 126.981819258753063, 37.479757955157687 ], [ 126.98186549764084, 37.475467824725897 ], [ 126.978835392713179, 37.476588022484925 ], [ 126.970563213006869, 37.476151943177477 ], [ 126.968365084577428, 37.47712344584248 ], [ 126.965356569574695, 37.479493684203682 ], [ 126.961744273821679, 37.484418917437587 ], [ 126.961215836434008, 37.489543449010107 ], [ 126.960273147717501, 37.492619708541952 ], [ 126.955899340879725, 37.491445943333233 ], [ 126.953904420827143, 37.490820831736606 ], [ 126.952600823602623, 37.491527229855876 ], [ 126.948342043093334, 37.493360525466386 ], [ 126.942980795320878, 37.492453591303246 ], [ 126.938463198217818, 37.492425613190548 ], [ 126.931730542485695, 37.493468980657219 ], [ 126.927405496731964, 37.49404550188968 ], [ 126.924254223071358, 37.490386407249431 ], [ 126.920389776094652, 37.490201147092307 ], [ 126.914127632143391, 37.488042930789305 ], [ 126.911706371588835, 37.486443392659211 ], [ 126.910067458065527, 37.485957874286022 ], [ 126.903051182753543, 37.484729001290582 ], [ 126.905100403137524, 37.487326588043288 ], [ 126.907315041906088, 37.489825647963777 ], [ 126.909507015386183, 37.492644796979228 ], [ 126.911843609341375, 37.495871568022309 ], [ 126.913941641598413, 37.496538400411033 ], [ 126.919392613076681, 37.497713591563752 ], [ 126.920993695875012, 37.501661626973714 ], [ 126.922872020761233, 37.50630229240852 ], [ 126.923557760646943, 37.508008222106341 ], [ 126.92565756835603, 37.512011519989329 ], [ 126.92697963363365, 37.514475204858073 ], [ 126.932126391582585, 37.515628348354078 ], [ 126.93770369134063, 37.516034642950537 ], [ 126.942314759171339, 37.516522111832742 ], [ 126.949321228993625, 37.517381797052572 ], [ 126.954989747073668, 37.515876287652752 ] ] ] ] } },
{ "type": "Feature", "properties": { "nm": "관악구" }, "geometry": { "type": "MultiPolygon", "coordinates": [ [ [ [ 126.927405496731964, 37.49404550188968 ], [ 126.931730542485695, 37.493468980657219 ], [ 126.938463198217818, 37.492425613190548 ], [ 126.942980795320878, 37.492453591303246 ], [ 126.948342043093334, 37.493360525466386 ], [ 126.952600823602623, 37.491527229855876 ], [ 126.953904420827143, 37.490820831736606 ], [ 126.955899340879725, 37.491445943333233 ], [ 126.960273147717501, 37.492619708541952 ], [ 126.961215836434008, 37.489543449010107 ], [ 126.961744273821679, 37.484418917437587 ], [ 126.965356569574695, 37.479493684203682 ], [ 126.968365084577428, 37.47712344584248 ], [ 126.970563213006869, 37.476151943177477 ], [ 126.978835392713179, 37.476588022484925 ], [ 126.98186549764084, 37.475467824725897 ], [ 126.983557352074683, 37.471385940523255 ], [ 126.986102209972714, 37.468628566881215 ], [ 126.987653663533109, 37.46630207301564 ], [ 126.987752022655371, 37.461056939927339 ], [ 126.988277215492531, 37.458663738835703 ], [ 126.982980707400998, 37.456621922826187 ], [ 126.978675017393684, 37.45552704069511 ], [ 126.976553010456996, 37.454897598535148 ], [ 126.973400358515661, 37.453217957518937 ], [ 126.970290170686724, 37.449486082002899 ], [ 126.965651801772665, 37.447090011992074 ], [ 126.964289273582565, 37.443695403833225 ], [ 126.963802337277045, 37.441065945437003 ], [ 126.960375425514087, 37.439903198914294 ], [ 126.95511637162906, 37.438882471445616 ], [ 126.949317881079281, 37.43848118114289 ], [ 126.943106121404909, 37.437233517061529 ], [ 126.940879644157391, 37.436669698883776 ], [ 126.939424541174105, 37.436212590115808 ], [ 126.9376116753281, 37.438883924131034 ], [ 126.936116156278317, 37.442015281205769 ], [ 126.933261307581503, 37.444027759312853 ], [ 126.930209769457704, 37.447434823904246 ], [ 126.927736377663535, 37.449067130058467 ], [ 126.926125331942416, 37.452313717753199 ], [ 126.923231715205702, 37.454355614863751 ], [ 126.921243367525122, 37.456333927989313 ], [ 126.915838519869823, 37.457621429122305 ], [ 126.913904166883512, 37.461754007515097 ], [ 126.91304465164346, 37.464728638316586 ], [ 126.911182569186778, 37.467741965969111 ], [ 126.909292918660284, 37.470836579608253 ], [ 126.910878463682721, 37.474648627537213 ], [ 126.909181140620319, 37.479666590119116 ], [ 126.905175752322904, 37.480002271405915 ], [ 126.898709857556725, 37.479595144952761 ], [ 126.900754605496672, 37.482016974049706 ], [ 126.903051182753543, 37.484729001290582 ], [ 126.910067458065527, 37.485957874286022 ], [ 126.911706371588835, 37.486443392659211 ], [ 126.914127632143391, 37.488042930789305 ], [ 126.920389776094652, 37.490201147092307 ], [ 126.924254223071358, 37.490386407249431 ], [ 126.927405496731964, 37.49404550188968 ] ] ] ] } },
{ "type": "Feature", "properties": { "nm": "서초구" }, "geometry": { "type": "MultiPolygon", "coordinates": [ [ [ [ 127.013160423020153, 37.522637591427348 ], [ 127.013489215593793, 37.52299254188263 ], [ 127.015001457992156, 37.524103434530574 ], [ 127.018445007820446, 37.519728592662631 ], [ 127.019308536590927, 37.516838153581986 ], [ 127.019509755675315, 37.516164534572972 ], [ 127.020920989085724, 37.511950323125269 ], [ 127.024484915106356, 37.50447759463318 ], [ 127.027598496020303, 37.49796081857793 ], [ 127.031611540109324, 37.48955488881419 ], [ 127.035493442899437, 37.484564546281845 ], [ 127.039747010109252, 37.485010105877791 ], [ 127.042685837386244, 37.482858378761492 ], [ 127.043531346679885, 37.481095473006654 ], [ 127.045878296420412, 37.476473839444239 ], [ 127.049981290431674, 37.470144760696158 ], [ 127.051974609682389, 37.467790999055779 ], [ 127.055530098980739, 37.468506310182804 ], [ 127.058216938768027, 37.469004232171692 ], [ 127.062161976441161, 37.469114571547536 ], [ 127.067629507010494, 37.470349130079342 ], [ 127.072875196425898, 37.4722608572052 ], [ 127.075831319815038, 37.473900646317901 ], [ 127.077176380767526, 37.474699388842332 ], [ 127.08411237872501, 37.474983383882623 ], [ 127.08623219411443, 37.470855624994584 ], [ 127.087808287813118, 37.469136694936552 ], [ 127.090616232765896, 37.466425346516793 ], [ 127.092204969921283, 37.463149825875327 ], [ 127.094724035114325, 37.460911361063104 ], [ 127.09548961421865, 37.457339470644023 ], [ 127.092077852438678, 37.453515844617876 ], [ 127.088692645886056, 37.448598440334472 ], [ 127.088101989775623, 37.445554533910915 ], [ 127.084643813005798, 37.443572072265397 ], [ 127.082431871105101, 37.441579869458621 ], [ 127.079098607528167, 37.441453607091624 ], [ 127.076696300495314, 37.441941951249603 ], [ 127.073788680636227, 37.442109861804305 ], [ 127.07273850666941, 37.439077408922998 ], [ 127.071756832525466, 37.435083032330404 ], [ 127.070761553939136, 37.432964633383051 ], [ 127.070600047011951, 37.432230689392703 ], [ 127.07102580029796, 37.430665723917301 ], [ 127.068593546676396, 37.430308974068396 ], [ 127.062254661314299, 37.429585351157577 ], [ 127.056590136579615, 37.429562281503301 ], [ 127.051484761983417, 37.429244101125562 ], [ 127.047387437575509, 37.431238934295195 ], [ 127.044617097274184, 37.434527011628042 ], [ 127.041950032718219, 37.436799217505538 ], [ 127.039293367894615, 37.43807226118377 ], [ 127.035819535958623, 37.439940139802864 ], [ 127.036706190398093, 37.442228925432481 ], [ 127.037770025752536, 37.444317179619517 ], [ 127.03735226895175, 37.448497420988666 ], [ 127.036913528841282, 37.450808024592085 ], [ 127.035840547934669, 37.452824364656401 ], [ 127.036970716822083, 37.455063708617942 ], [ 127.036926885858691, 37.455731948044495 ], [ 127.035598109453758, 37.457826964719267 ], [ 127.03424554818389, 37.462299582477492 ], [ 127.03255725112038, 37.465177075610391 ], [ 127.029935600426171, 37.465158657540464 ], [ 127.028654193306366, 37.461605285892574 ], [ 127.026368053536828, 37.458683531549468 ], [ 127.022598080206905, 37.456818499007959 ], [ 127.017861750967867, 37.455805067718941 ], [ 127.015337592975641, 37.454941847154188 ], [ 127.014007851057428, 37.455049082723058 ], [ 127.010461353689337, 37.456403693960446 ], [ 127.008531648505155, 37.458051572185838 ], [ 127.008583516872534, 37.458301961011649 ], [ 127.00811426289728, 37.459023592689341 ], [ 127.005994610224306, 37.461947749355971 ], [ 127.0045180698352, 37.466232694528415 ], [ 126.999557937465283, 37.467168161889361 ], [ 126.996626224921329, 37.465768784452926 ], [ 126.997193593633767, 37.464184164919992 ], [ 126.997299547297857, 37.46377174754609 ], [ 126.994691534569014, 37.46164588812514 ], [ 126.990936483265315, 37.459936846289409 ], [ 126.988277215492531, 37.458663738835703 ], [ 126.987752022655371, 37.461056939927339 ], [ 126.987653663533109, 37.46630207301564 ], [ 126.986102209972714, 37.468628566881215 ], [ 126.983557352074683, 37.471385940523255 ], [ 126.98186549764084, 37.475467824725897 ], [ 126.981819258753063, 37.479757955157687 ], [ 126.982049038327006, 37.484009570348654 ], [ 126.98247494465744, 37.489344979397259 ], [ 126.982743141302521, 37.492439260426309 ], [ 126.983673449671031, 37.497659223945497 ], [ 126.982473924814443, 37.50178219129652 ], [ 126.97983709793435, 37.5042769515576 ], [ 126.98021143196425, 37.50448785921364 ], [ 126.981834580636203, 37.506034903329699 ], [ 126.986420834565138, 37.507678592578728 ], [ 126.989542544186577, 37.511619629721075 ], [ 126.994669281976712, 37.515618070531275 ], [ 126.99753189651048, 37.51743244230731 ], [ 127.00045075601443, 37.519291108986693 ], [ 127.003722352085163, 37.521534961661501 ], [ 127.006933162370188, 37.523958973088128 ], [ 127.008721984342429, 37.525666667263991 ], [ 127.013160423020153, 37.522637591427348 ] ] ] ] } },
{ "type": "Feature", "properties": { "nm": "강남구" }, "geometry": { "type": "MultiPolygon", "coordinates": [ [ [ [ 127.039660521093552, 37.535751534825131 ], [ 127.045907758189486, 37.534160591227945 ], [ 127.0488897173053, 37.532566623114519 ], [ 127.051834365830231, 37.530766805455357 ], [ 127.056225289977888, 37.528703553464368 ], [ 127.060713820071115, 37.526868975827405 ], [ 127.067800267143809, 37.524333812076655 ], [ 127.067727494299731, 37.519705191694364 ], [ 127.068003713002227, 37.517518344314247 ], [ 127.06879941504414, 37.510907940514805 ], [ 127.069156553330217, 37.507979511111202 ], [ 127.069869614240602, 37.503112587184162 ], [ 127.0736188443923, 37.502382069141866 ], [ 127.078334565691563, 37.501565079410113 ], [ 127.081756480802653, 37.500480248183798 ], [ 127.08378076409457, 37.49982812324663 ], [ 127.091142757613468, 37.497708390160362 ], [ 127.094604017669553, 37.496716393517204 ], [ 127.097581394281193, 37.495454247438673 ], [ 127.101152358777369, 37.493793496078439 ], [ 127.104679324717182, 37.491896742199337 ], [ 127.107772104098615, 37.489085406182312 ], [ 127.109686535505219, 37.486545596505771 ], [ 127.111548433745497, 37.483920938410535 ], [ 127.113357531275241, 37.481216874967231 ], [ 127.115815958410707, 37.477896661089886 ], [ 127.116739512771304, 37.476677144534541 ], [ 127.120218505132868, 37.472006451780835 ], [ 127.121809202173011, 37.469842306510515 ], [ 127.124385968762951, 37.467587176551078 ], [ 127.118492344073701, 37.462231814152091 ], [ 127.116728913434414, 37.458983743764009 ], [ 127.11471423259205, 37.459190026608198 ], [ 127.112610065519448, 37.461051530737038 ], [ 127.106761815194005, 37.46219882885665 ], [ 127.104493679493331, 37.46174692828675 ], [ 127.104765012330859, 37.461211864390691 ], [ 127.104195712605033, 37.460639948298322 ], [ 127.101948890690096, 37.458974848420041 ], [ 127.09548961421865, 37.457339470644023 ], [ 127.094724035114325, 37.460911361063104 ], [ 127.092204969921283, 37.463149825875327 ], [ 127.090616232765896, 37.466425346516793 ], [ 127.087808287813118, 37.469136694936552 ], [ 127.08623219411443, 37.470855624994584 ], [ 127.08411237872501, 37.474983383882623 ], [ 127.077176380767526, 37.474699388842332 ], [ 127.075831319815038, 37.473900646317901 ], [ 127.072875196425898, 37.4722608572052 ], [ 127.067629507010494, 37.470349130079342 ], [ 127.062161976441161, 37.469114571547536 ], [ 127.058216938768027, 37.469004232171692 ], [ 127.055530098980739, 37.468506310182804 ], [ 127.051974609682389, 37.467790999055779 ], [ 127.049981290431674, 37.470144760696158 ], [ 127.045878296420412, 37.476473839444239 ], [ 127.043531346679885, 37.481095473006654 ], [ 127.042685837386244, 37.482858378761492 ], [ 127.039747010109252, 37.485010105877791 ], [ 127.035493442899437, 37.484564546281845 ], [ 127.031611540109324, 37.48955488881419 ], [ 127.027598496020303, 37.49796081857793 ], [ 127.024484915106356, 37.50447759463318 ], [ 127.020920989085724, 37.511950323125269 ], [ 127.019509755675315, 37.516164534572972 ], [ 127.019308536590927, 37.516838153581986 ], [ 127.018445007820446, 37.519728592662631 ], [ 127.015001457992156, 37.524103434530574 ], [ 127.013489215593793, 37.52299254188263 ], [ 127.013160423020153, 37.522637591427348 ], [ 127.008721984342429, 37.525666667263991 ], [ 127.011809146522523, 37.528978250744899 ], [ 127.014218027719295, 37.531378118953434 ], [ 127.01694938879308, 37.533561586071428 ], [ 127.021636327602693, 37.535634339791009 ], [ 127.028948489689526, 37.535833941305228 ], [ 127.033633735430215, 37.535839624231102 ], [ 127.039660521093552, 37.535751534825131 ] ] ] ] } },
{ "type": "Feature", "properties": { "nm": "송파구" }, "geometry": { "type": "MultiPolygon", "coordinates": [ [ [ [ 127.113413425140948, 37.542760785816185 ], [ 127.11696213879172, 37.541732932526031 ], [ 127.119674701936603, 37.540612804875551 ], [ 127.122498346737189, 37.538646700975036 ], [ 127.121998607346498, 37.534648752737532 ], [ 127.121156119153497, 37.532314945404316 ], [ 127.120537932255473, 37.530623534118234 ], [ 127.120706114007874, 37.52724737002513 ], [ 127.123510303943064, 37.526009015716227 ], [ 127.128763538257203, 37.523688560035836 ], [ 127.131684003444718, 37.522398419390562 ], [ 127.136488278576394, 37.520247609395682 ], [ 127.138624886120198, 37.519263496737679 ], [ 127.141638717571581, 37.518002246436076 ], [ 127.144917532564222, 37.516841679245701 ], [ 127.142056137839205, 37.51511407369793 ], [ 127.142047375038274, 37.512183039080547 ], [ 127.140728627367224, 37.507326721407239 ], [ 127.143095271486203, 37.504610445321703 ], [ 127.146021190078798, 37.503618236661644 ], [ 127.152338646823026, 37.50325628570684 ], [ 127.158189159908716, 37.501913507959848 ], [ 127.161264924425126, 37.499665478556238 ], [ 127.16036287858789, 37.497648676320097 ], [ 127.159490791520852, 37.493911165357375 ], [ 127.157658409633513, 37.489707107278605 ], [ 127.155053754681234, 37.487779004845891 ], [ 127.151827087092016, 37.48598816470917 ], [ 127.148534414545878, 37.483610187791385 ], [ 127.147438802431282, 37.480614102782674 ], [ 127.145586623203158, 37.477019112211671 ], [ 127.142311027506139, 37.474689924685464 ], [ 127.136043247808473, 37.474264902844332 ], [ 127.132721842793103, 37.474411753105635 ], [ 127.132428450045097, 37.470607978833243 ], [ 127.130388081821366, 37.468122467805216 ], [ 127.126563223421883, 37.468749966649639 ], [ 127.125138518355271, 37.469479915918129 ], [ 127.124385968762951, 37.467587176551078 ], [ 127.121809202173011, 37.469842306510515 ], [ 127.120218505132868, 37.472006451780835 ], [ 127.116739512771304, 37.476677144534541 ], [ 127.115815958410707, 37.477896661089886 ], [ 127.113357531275241, 37.481216874967231 ], [ 127.111548433745497, 37.483920938410535 ], [ 127.109686535505219, 37.486545596505771 ], [ 127.107772104098615, 37.489085406182312 ], [ 127.104679324717182, 37.491896742199337 ], [ 127.101152358777369, 37.493793496078439 ], [ 127.097581394281193, 37.495454247438673 ], [ 127.094604017669553, 37.496716393517204 ], [ 127.091142757613468, 37.497708390160362 ], [ 127.08378076409457, 37.49982812324663 ], [ 127.081756480802653, 37.500480248183798 ], [ 127.078334565691563, 37.501565079410113 ], [ 127.0736188443923, 37.502382069141866 ], [ 127.069869614240602, 37.503112587184162 ], [ 127.069156553330217, 37.507979511111202 ], [ 127.06879941504414, 37.510907940514805 ], [ 127.068003713002227, 37.517518344314247 ], [ 127.067727494299731, 37.519705191694364 ], [ 127.067800267143809, 37.524333812076655 ], [ 127.07171559877257, 37.523431900375336 ], [ 127.074838196431259, 37.52280314121694 ], [ 127.078008314644109, 37.522679502632826 ], [ 127.080830718811796, 37.523289921253649 ], [ 127.084861835083231, 37.524563170329941 ], [ 127.089738046892919, 37.526855537060086 ], [ 127.091549271207015, 37.528129195641732 ], [ 127.093460426619018, 37.529647478151183 ], [ 127.100685885527099, 37.535380881125121 ], [ 127.103259529658914, 37.53743284931771 ], [ 127.106666369608135, 37.540129447330379 ], [ 127.108813760611639, 37.542380311500601 ], [ 127.113413425140948, 37.542760785816185 ] ] ] ] } },
{ "type": "Feature", "properties": { "nm": "강동구" }, "geometry": { "type": "MultiPolygon", "coordinates": [ [ [ [ 127.178816162768044, 37.569567639426431 ], [ 127.179708746873928, 37.566072516272015 ], [ 127.181606103176165, 37.561772138716023 ], [ 127.181666000401151, 37.557228052893656 ], [ 127.181949883724315, 37.552787418480399 ], [ 127.18278932859792, 37.547883960641123 ], [ 127.183626652965316, 37.54549695888943 ], [ 127.18267420008668, 37.545555260126648 ], [ 127.179667445031384, 37.546392547861203 ], [ 127.177551931940442, 37.546034281676221 ], [ 127.175231261022731, 37.545451033856871 ], [ 127.168562151500339, 37.544973743948461 ], [ 127.163720555962286, 37.54448391222256 ], [ 127.160214796151109, 37.541658029227087 ], [ 127.157790466055374, 37.539109103537569 ], [ 127.155395720622607, 37.536367838488005 ], [ 127.154139101079238, 37.534005615969342 ], [ 127.153261209453817, 37.530205333206986 ], [ 127.150795524416182, 37.526890930990874 ], [ 127.14946733764441, 37.525764715441753 ], [ 127.149590789121177, 37.525313081611685 ], [ 127.149081870547903, 37.524407272657932 ], [ 127.145403829631647, 37.520591777525226 ], [ 127.144917532564222, 37.516841679245701 ], [ 127.141638717571581, 37.518002246436076 ], [ 127.138624886120198, 37.519263496737679 ], [ 127.136488278576394, 37.520247609395682 ], [ 127.131684003444718, 37.522398419390562 ], [ 127.128763538257203, 37.523688560035836 ], [ 127.123510303943064, 37.526009015716227 ], [ 127.120706114007874, 37.52724737002513 ], [ 127.120537932255473, 37.530623534118234 ], [ 127.121156119153497, 37.532314945404316 ], [ 127.121998607346498, 37.534648752737532 ], [ 127.122498346737189, 37.538646700975036 ], [ 127.119674701936603, 37.540612804875551 ], [ 127.11696213879172, 37.541732932526031 ], [ 127.113413425140948, 37.542760785816185 ], [ 127.108813760611639, 37.542380311500601 ], [ 127.110080215505008, 37.544784793230619 ], [ 127.111372028377104, 37.547117981444401 ], [ 127.112672237336184, 37.552059672903653 ], [ 127.115237038225786, 37.556776369069794 ], [ 127.115645631833644, 37.557699879464188 ], [ 127.118608047349227, 37.560257453091687 ], [ 127.122955567911148, 37.56348990213975 ], [ 127.126101181407265, 37.564960488764434 ], [ 127.129627365911674, 37.566443599290196 ], [ 127.134605870786956, 37.567947646804939 ], [ 127.137363989193432, 37.5683813404655 ], [ 127.139926114527867, 37.568426094545579 ], [ 127.147267764979716, 37.568432747754947 ], [ 127.152864825996218, 37.570770482915442 ], [ 127.156899443314288, 37.572954114713596 ], [ 127.16180261453222, 37.576256438430114 ], [ 127.169140318203389, 37.57904898760701 ], [ 127.176024921154593, 37.579276059620291 ], [ 127.175945899604656, 37.575339518624261 ], [ 127.177372505592899, 37.572592783055327 ], [ 127.178816162768044, 37.569567639426431 ] ] ] ] } }
]
}
